NORAD_CAT_ID,OBJECT_NAME,OBJECT_TYPE,EPOCH,MEAN_MOTION,ECCENTRICITY,INCLINATION,RA_OF_ASC_NODE,ARG_OF_PERICENTER,MEAN_ANOMALY,BSTAR,MEAN_MOTION_DOT,MEAN_MOTION_DDOT,TLE_LINE0,TLE_LINE1,TLE_LINE2,SEMIMAJOR_AXIS,PERIOD,APOGEE,PERIGEE,DECAYED
51996.0,STARLINK-3538,PAYLOAD,2022-04-02 06:00:00,15.73107131,0.0001124,53.2173,22.5015,92.1642,8.8161,0.00058052,0.00081318,0.0,0 STARLINK-3538,1 51996U 22025AS  22092.25001157  .00081318  00000-0  58052-3 0  9991,2 51996  53.2173  22.5015 0001124  92.1642   8.8161 15.73107131  5008,6728.16,91.539,350.781,349.269,0.0
51996.0,STARLINK-3538,PAYLOAD,2022-04-02 20:00:01,15.73209451,0.000147,53.2183,19.6164,106.4271,60.104,-0.00023814,-0.00033921,0.0,0 STARLINK-3538,1 51996U 22025AS  22092.83334491 -.00033921  00000-0 -23814-3 0  9992,2 51996  53.2183  19.6164 0001470 106.4271  60.1040 15.73209451  5096,6727.868,91.533,350.722,348.744,0.0
51996.0,STARLINK-3538,PAYLOAD,2022-04-02 22:00:01,15.73226174,0.0001436,53.2183,19.2046,103.2905,175.5371,-0.00060842,-0.00085244,0.0,0 STARLINK-3538,1 51996U 22025AS  22092.91668981 -.00085244  00000-0 -60842-3 0  9992,2 51996  53.2183  19.2046 0001436 103.2905 175.5371 15.73226174  3684,6727.821,91.532,350.652,348.719,0.0
51996.0,STARLINK-3538,PAYLOAD,2022-04-03 20:00:01,15.73164764,0.000144,53.2181,14.6687,107.8161,325.4294,-0.00024983,-0.00035482,0.0,0 STARLINK-3538,1 51996U 22025AS  22093.83335648 -.00035482  00000-0 -24983-3 0  9990,2 51996  53.2181  14.6687 0001440 107.8161 325.4294 15.73164764  5252,6727.996,91.535,350.829,348.892,0.0
51996.0,STARLINK-3538,PAYLOAD,2022-04-03 22:00:00,15.73156108,0.0001368,53.218,14.2571,105.6063,79.7947,-0.00019377,-0.00027674,0.0,0 STARLINK-3538,1 51996U 22025AS  22093.91667824 -.00027674  00000-0 -19377-3 0  9998,2 51996  53.2180  14.2571 0001368 105.6063  79.7947 15.73156108  3698,6728.02,91.536,350.806,348.965,0.0
51996.0,STARLINK-3538,PAYLOAD,2022-04-04 04:00:00,15.73109214,0.0001206,53.2179,13.0215,99.3538,62.7023,0.00079045,0.0011136,0.0,0 STARLINK-3538,1 51996U 22025AS  22094.16667824  .00111360  00000-0  79045-3 0  9998,2 51996  53.2179  13.0215 0001206  99.3538  62.7023 15.73109214  5308,6728.154,91.538,350.83,349.208,0.0
51996.0,STARLINK-3538,PAYLOAD,2022-04-04 14:00:01,15.73175381,0.000121,53.2177,10.9576,113.4504,249.7141,0.00079261,0.00111992,0.0,0 STARLINK-3538,1 51996U 22025AS  22094.58334491  .00111992  00000-0  79261-3 0  9996,2 51996  53.2177  10.9576 0001210 113.4504 249.7141 15.73175381  3728,6727.965,91.535,350.644,349.016,0.0
51996.0,STARLINK-3538,PAYLOAD,2022-04-04 22:00:00,15.7329783,0.0001178,53.218,9.309,112.0456,340.0739,2.0425e-05,2.259e-05,0.0,0 STARLINK-3538,1 51996U 22025AS  22094.91667824  .00002259  00000-0  20425-4 0  9996,2 51996  53.2180   9.3090 0001178 112.0456 340.0739 15.73297830  3710,6727.616,91.527,350.274,348.689,0.0
51996.0,STARLINK-3538,PAYLOAD,2022-04-05 04:00:00,15.73292586,0.0001034,53.218,8.073,102.4084,326.495,-0.00032394,-0.00046013,0.0,0 STARLINK-3538,1 51996U 22025AS  22095.16667824 -.00046013  00000-0 -32394-3 0  9999,2 51996  53.2180   8.0730 0001034 102.4084 326.4950 15.73292586  5468,6727.630999999999,91.528,350.19199999999995,348.801,0.0
51996.0,STARLINK-3538,PAYLOAD,2022-04-05 14:00:01,15.73206112,0.0001266,53.2176,5.992999999999999,110.8952,159.1759,-1.3303e-05,-2.487e-05,0.0,0 STARLINK-3538,1 51996U 22025AS  22095.58335648 -.00002487  00000-0 -13303-4 0  9998,2 51996  53.2176   5.9930 0001266 110.8952 159.1759 15.73206112  5531,6727.878000000002,91.533,350.594,348.891,0.0
51996.0,STARLINK-3538,PAYLOAD,2022-04-05 20:00:01,15.7335907,0.0001105,53.2175,4.7654,124.2277,122.6611,-0.0024453,-0.00332826,0.0,0 STARLINK-3538,1 51996U 22025AS  22095.83334491 -.00332826  00000-0 -24453-2 0  9990,2 51996  53.2175   4.7654 0001105 124.2277 122.6611 15.73359070  5579,6727.441999999999,91.524,350.05,348.56300000000016,0.0
51996.0,STARLINK-3538,PAYLOAD,2022-04-05 22:00:00,15.73454688,9.15e-05,53.2175,4.3524,108.6119,250.5081,-0.005143,-0.00674539,0.0,0 STARLINK-3538,1 51996U 22025AS  22095.91667824 -.00674539  00000-0 -51430-2 0  9993,2 51996  53.2175   4.3524 0000915 108.6119 250.5081 15.73454688  3706,6727.169,91.518,349.65,348.4190000000001,0.0
51996.0,STARLINK-3538,PAYLOAD,2022-04-06 06:00:02,15.73201803,0.0001051,53.217,2.7118,103.9994,344.1715,-6.789199999999999e-05,-0.00010137,0.0,0 STARLINK-3538,1 51996U 22025AS  22096.25002315 -.00010137  00000-0 -67892-4 0  9998,2 51996  53.2170   2.7118 0001051 103.9994 344.1715 15.73201803  5630,6727.89,91.533,350.462,349.048,0.0
51996.0,STARLINK-3538,PAYLOAD,2022-04-06 14:00:01,15.73180429,0.0001106,53.2172,1.0602,120.9328,56.1056,6.165600000000001e-05,8.034e-05,0.0,0 STARLINK-3538,1 51996U 22025AS  22096.58334491  .00008034  00000-0  61656-4 0  9990,2 51996  53.2172   1.0602 0001106 120.9328  56.1056 15.73180429  3695,6727.951,91.534,350.56,349.07199999999995,0.0
51996.0,STARLINK-3538,PAYLOAD,2022-04-06 22:00:00,15.73210493,0.0001087,53.2175,359.412,114.6258,151.304,-0.00044636,-0.00062824,0.0,0 STARLINK-3538,1 51996U 22025AS  22096.91667824 -.00062824  00000-0 -44636-3 0  9993,2 51996  53.2175 359.4120 0001087 114.6258 151.3040 15.73210493  3701,6727.865,91.533,350.462,348.999,0.0
51996.0,STARLINK-3538,PAYLOAD,2022-04-07 14:00:01,15.73202527,0.0001227,53.2172,356.1119,117.0767,326.6692,0.00015074,0.00020589,0.0,0 STARLINK-3538,1 51996U 22025AS  22097.58334491  .00020589  00000-0  15074-3 0  9992,2 51996  53.2172 356.1119 0001227 117.0767 326.6692 15.73202527  3707,6727.888000000001,91.533,350.57800000000015,348.927,0.0
51996.0,STARLINK-3538,PAYLOAD,2022-04-07 20:00:01,15.73203927,0.0001305,53.2172,354.8757,113.971,306.4704,-1.9025e-05,-3.289e-05,0.0,0 STARLINK-3538,1 51996U 22025AS  22097.83334491 -.00003289  00000-0 -19025-4 0  9991,2 51996  53.2172 354.8757 0001305 113.9710 306.4704 15.73203927  5886,6727.884,91.533,350.62699999999984,348.871,0.0
51996.0,STARLINK-3538,PAYLOAD,2022-04-07 22:00:00,15.73187587,0.0001278,53.2171,354.4639,109.8381,62.8411,0.00023754,0.0003283,0.0,0 STARLINK-3538,1 51996U 22025AS  22097.91667824  .00032830  00000-0  23754-3 0  9994,2 51996  53.2171 354.4639 0001278 109.8381  62.8411 15.73187587  3684,6727.931,91.534,350.655,348.936,0.0
51996.0,STARLINK-3538,PAYLOAD,2022-04-08 06:00:00,15.73276429,0.0001092,53.2165,352.8148,110.1916,151.4565,-0.00030128,-0.00042825,0.0,0 STARLINK-3538,1 51996U 22025AS  22098.25001157 -.00042825  00000-0 -30128-3 0  9993,2 51996  53.2165 352.8148 0001092 110.1916 151.4565 15.73276429  5958,6727.677,91.529,350.277,348.80800000000005,0.0
51996.0,STARLINK-3538,PAYLOAD,2022-04-08 12:00:00,15.72927093,0.0001312,53.2172,351.5647,103.038,135.4016,0.0017036999999999,0.00242671,0.0,0 STARLINK-3538,1 51996U 22025AS  22098.50001157  .00242671  00000-0  17037-2 0  9993,2 51996  53.2172 351.5647 0001312 103.0380 135.4016 15.72927093  5993,6728.6730000000025,91.549,351.421,349.656,0.0
51996.0,STARLINK-3538,PAYLOAD,2022-04-08 14:00:03,15.72790587,0.0001474,53.2169,351.1504,108.388,242.4045,0.0041816,0.0062086999999999,0.0,0 STARLINK-3538,1 51996U 22025AS  22098.58336806  .00620870  00000-0  41816-2 0  9996,2 51996  53.2169 351.1504 0001474 108.3880 242.4045 15.72790587  3703,6729.063,91.557,351.92,349.936,0.0
51996.0,STARLINK-3538,PAYLOAD,2022-04-08 20:00:01,15.73245395,0.0001284,53.2172,349.927,115.1342,212.1696,-0.00051486,-0.00072398,0.0,0 STARLINK-3538,1 51996U 22025AS  22098.83334491 -.00072398  00000-0 -51486-3 0  9995,2 51996  53.2172 349.9270 0001284 115.1342 212.1696 15.73245395  6049,6727.766,91.531,350.495,348.767,0.0
51996.0,STARLINK-3538,PAYLOAD,2022-04-08 22:00:00,15.73231888,0.000125,53.2171,349.5153,110.9729,328.5748,-0.00047756,-0.000672,0.0,0 STARLINK-3538,1 51996U 22025AS  22098.91667824 -.00067200  00000-0 -47756-3 0  9994,2 51996  53.2171 349.5153 0001250 110.9729 328.5748 15.73231888  3677,6727.804,91.531,350.51,348.82800000000015,0.0
51996.0,STARLINK-3538,PAYLOAD,2022-04-09 14:00:01,15.73178642,0.0001215,53.2168,346.2148,119.5493,137.8327,9.5455e-05,0.00012785,0.0,0 STARLINK-3538,1 51996U 22025AS  22099.58334491  .00012785  00000-0  95455-4 0  9995,2 51996  53.2168 346.2148 0001215 119.5493 137.8327 15.73178642  6164,6727.956,91.534,350.639,349.004,0.0
51996.0,STARLINK-3538,PAYLOAD,2022-04-09 22:00:00,15.73176791,0.0001259,53.2167,344.5672,109.7782,236.5021,0.00022094,0.00030469,0.0,0 STARLINK-3538,1 51996U 22025AS  22099.91667824  .00030469  00000-0  22094-3 0  9998,2 51996  53.2167 344.5672 0001259 109.7782 236.5021 15.73176791  3704,6727.9609999999975,91.535,350.673,348.97900000000016,0.0
51996.0,STARLINK-3538,PAYLOAD,2022-04-10 04:00:00,15.73200346,0.0001087,53.2163,343.3308,107.0612,215.9297,0.00077691,0.00109851,0.0,0 STARLINK-3538,1 51996U 22025AS  22100.16667824  .00109851  00000-0  77691-3 0  9993,2 51996  53.2163 343.3308 0001087 107.0612 215.9297 15.73200346  6258,6727.894,91.533,350.491,349.028,0.0
51996.0,STARLINK-3538,PAYLOAD,2022-04-10 14:00:01,15.73268386,0.0001141,53.2164,341.2664,126.1477,38.0626,-0.00035486,-0.0005027,0.0,0 STARLINK-3538,1 51996U 22025AS  22100.58334491 -.00050270  00000-0 -35486-3 0  9998,2 51996  53.2164 341.2664 0001141 126.1477  38.0626 15.73268386  6318,6727.7,91.529,350.333,348.798,0.0
51996.0,STARLINK-3538,PAYLOAD,2022-04-10 22:00:00,15.73245339,0.0001013,53.2167,339.6187,116.4751,136.75,-0.00043423,-0.00061235,0.0,0 STARLINK-3538,1 51996U 22025AS  22100.91667824 -.00061235  00000-0 -43423-3 0  9997,2 51996  53.2167 339.6187 0001013 116.4751 136.7500 15.73245339  3718,6727.766,91.531,350.31199999999984,348.949,0.0
51996.0,STARLINK-3538,PAYLOAD,2022-04-11 12:00:00,15.73165623,0.0001039,53.2166,336.7305,137.2908,181.5959,0.00043764,0.00061157,0.0,0 STARLINK-3538,1 51996U 22025AS  22101.50001157  .00061157  00000-0  43764-3 0  9993,2 51996  53.2166 336.7305 0001039 137.2908 181.5959 15.73165623  6468,6727.993,91.535,350.557,349.159,0.0
